CCSDS_OMM_VERS = 2.0
CREATION_DATE  = 
ORIGINATOR     = 

OBJECT_NAME    = ENVISAT
OBJECT_ID      = 2002-009A
CENTER_NAME    = EARTH
REF_FRAME      = TEME
TIME_SYSTEM    = UTC
MEAN_ELEMENT_THEORY = SGP/SGP4

EPOCH          = 2025-12-03T09:20:36.423744
MEAN_MOTION    = 14.38993574
ECCENTRICITY   = .00011706
INCLINATION    = 98.3586
RA_OF_ASC_NODE = 288.3676
ARG_OF_PERICENTER = 81.8737
MEAN_ANOMALY   = 30.2501

EPHEMERIS_TYPE = 0
CLASSIFICATION_TYPE = U
NORAD_CAT_ID   = 27386
ELEMENT_SET_NO = 999
REV_AT_EPOCH   = 24532
BSTAR          = .85225151E-4
MEAN_MOTION_DOT = .22E-5
MEAN_MOTION_DDOT = 0

CCSDS_OMM_VERS = 2.0
CREATION_DATE  = 
ORIGINATOR     = 

OBJECT_NAME    = IDEFIX & ARIANE 42P R/B
OBJECT_ID      = 2002-021B
CENTER_NAME    = EARTH
REF_FRAME      = TEME
TIME_SYSTEM    = UTC
MEAN_ELEMENT_THEORY = SGP/SGP4

EPOCH          = 2025-12-03T08:28:44.732928
MEAN_MOTION    = 14.30939008
ECCENTRICITY   = .00128257
INCLINATION    = 98.5772
RA_OF_ASC_NODE = 272.1666
ARG_OF_PERICENTER = 108.9566
MEAN_ANOMALY   = 251.3008

EPHEMERIS_TYPE = 0
CLASSIFICATION_TYPE = U
NORAD_CAT_ID   = 27422
ELEMENT_SET_NO = 999
REV_AT_EPOCH   = 23024
BSTAR          = .20402344E-3
MEAN_MOTION_DOT = .493E-5
MEAN_MOTION_DDOT = 0

CCSDS_OMM_VERS = 2.0
CREATION_DATE  = 
ORIGINATOR     = 

OBJECT_NAME    = AQUA
OBJECT_ID      = 2002-022A
CENTER_NAME    = EARTH
REF_FRAME      = TEME
TIME_SYSTEM    = UTC
MEAN_ELEMENT_THEORY = SGP/SGP4

EPOCH          = 2025-12-03T09:22:17.037408
MEAN_MOTION    = 14.61772008
ECCENTRICITY   = .00007528
INCLINATION    = 98.4024
RA_OF_ASC_NODE = 298.1185
ARG_OF_PERICENTER = 108.5664
MEAN_ANOMALY   = 6.1363

EPHEMERIS_TYPE = 0
CLASSIFICATION_TYPE = U
NORAD_CAT_ID   = 27424
ELEMENT_SET_NO = 999
REV_AT_EPOCH   = 25466
BSTAR          = .33697547E-3
MEAN_MOTION_DOT = .1632E-4
MEAN_MOTION_DDOT = 0

CCSDS_OMM_VERS = 2.0
CREATION_DATE  = 
ORIGINATOR     = 

OBJECT_NAME    = CZ-4B R/B
OBJECT_ID      = 2002-024C
CENTER_NAME    = EARTH
REF_FRAME      = TEME
TIME_SYSTEM    = UTC
MEAN_ELEMENT_THEORY = SGP/SGP4

EPOCH          = 2025-12-03T04:02:28.864032
MEAN_MOTION    = 14.14524606
ECCENTRICITY   = .00492338
INCLINATION    = 98.9014
RA_OF_ASC_NODE = 25.9729
ARG_OF_PERICENTER = 297.6316
MEAN_ANOMALY   = 129.7768

EPHEMERIS_TYPE = 0
CLASSIFICATION_TYPE = U
NORAD_CAT_ID   = 27432
ELEMENT_SET_NO = 999
REV_AT_EPOCH   = 21559
BSTAR          = .72256289E-4
MEAN_MOTION_DOT = .95E-6
MEAN_MOTION_DDOT = 0

CCSDS_OMM_VERS = 2.0
CREATION_DATE  = 
ORIGINATOR     = 

OBJECT_NAME    = MIDORI II (ADEOS-II)
OBJECT_ID      = 2002-056A
CENTER_NAME    = EARTH
REF_FRAME      = TEME
TIME_SYSTEM    = UTC
MEAN_ELEMENT_THEORY = SGP/SGP4

EPOCH          = 2025-12-03T08:01:16.480128
MEAN_MOTION    = 14.29195373
ECCENTRICITY   = .0000324
INCLINATION    = 98.7621
RA_OF_ASC_NODE = 290.2418
ARG_OF_PERICENTER = 8.8165
MEAN_ANOMALY   = 351.3022

EPHEMERIS_TYPE = 0
CLASSIFICATION_TYPE = U
NORAD_CAT_ID   = 27597
ELEMENT_SET_NO = 999
REV_AT_EPOCH   = 19653
BSTAR          = .19473482E-3
MEAN_MOTION_DOT = .449E-5
MEAN_MOTION_DDOT = 0

CCSDS_OMM_VERS = 2.0
CREATION_DATE  = 
ORIGINATOR     = 

OBJECT_NAME    = H-2A R/B
OBJECT_ID      = 2002-056E
CENTER_NAME    = EARTH
REF_FRAME      = TEME
TIME_SYSTEM    = UTC
MEAN_ELEMENT_THEORY = SGP/SGP4

EPOCH          = 2025-12-03T08:21:15.634368
MEAN_MOTION    = 14.33663997
ECCENTRICITY   = .00715078
INCLINATION    = 98.3052
RA_OF_ASC_NODE = 296.4797
ARG_OF_PERICENTER = 88.6790
MEAN_ANOMALY   = 72.9046

EPHEMERIS_TYPE = 0
CLASSIFICATION_TYPE = U
NORAD_CAT_ID   = 27601
ELEMENT_SET_NO = 999
REV_AT_EPOCH   = 20030
BSTAR          = .19099688E-3
MEAN_MOTION_DOT = .504E-5
MEAN_MOTION_DDOT = 0

CCSDS_OMM_VERS = 2.0
CREATION_DATE  = 
ORIGINATOR     = 

OBJECT_NAME    = CZ-4B R/B
OBJECT_ID      = 2003-049C
CENTER_NAME    = EARTH
REF_FRAME      = TEME
TIME_SYSTEM    = UTC
MEAN_ELEMENT_THEORY = SGP/SGP4

EPOCH          = 2025-12-02T23:12:57.243744
MEAN_MOTION    = 14.54894957
ECCENTRICITY   = .00484858
INCLINATION    = 98.6780
RA_OF_ASC_NODE = 323.1626
ARG_OF_PERICENTER = 165.5846
MEAN_ANOMALY   = 194.6746

EPHEMERIS_TYPE = 0
CLASSIFICATION_TYPE = U
NORAD_CAT_ID   = 28059
ELEMENT_SET_NO = 999
REV_AT_EPOCH   = 17253
BSTAR          = .14041582E-3
MEAN_MOTION_DOT = .561E-5
MEAN_MOTION_DDOT = 0

CCSDS_OMM_VERS = 2.0
CREATION_DATE  = 
ORIGINATOR     = 

OBJECT_NAME    = CZ-2C R/B
OBJECT_ID      = 2004-012C
CENTER_NAME    = EARTH
REF_FRAME      = TEME
TIME_SYSTEM    = UTC
MEAN_ELEMENT_THEORY = SGP/SGP4

EPOCH          = 2025-12-03T06:43:30.414432
MEAN_MOTION    = 15.54543707
ECCENTRICITY   = .00170175
INCLINATION    = 97.7445
RA_OF_ASC_NODE = 29.1269
ARG_OF_PERICENTER = 307.3535
MEAN_ANOMALY   = 52.6167

EPHEMERIS_TYPE = 0
CLASSIFICATION_TYPE = U
NORAD_CAT_ID   = 28222
ELEMENT_SET_NO = 999
REV_AT_EPOCH   = 18925
BSTAR          = .63826729E-3
MEAN_MOTION_DOT = .424E-3
MEAN_MOTION_DDOT = 0

CCSDS_OMM_VERS = 2.0
CREATION_DATE  = 
ORIGINATOR     = 

OBJECT_NAME    = SL-16 R/B
OBJECT_ID      = 2004-021B
CENTER_NAME    = EARTH
REF_FRAME      = TEME
TIME_SYSTEM    = UTC
MEAN_ELEMENT_THEORY = SGP/SGP4

EPOCH          = 2025-12-03T08:35:36.985344
MEAN_MOTION    = 14.14582539
ECCENTRICITY   = .00057877
INCLINATION    = 71.0022
RA_OF_ASC_NODE = 74.6519
ARG_OF_PERICENTER = 212.7794
MEAN_ANOMALY   = 147.2970

EPHEMERIS_TYPE = 0
CLASSIFICATION_TYPE = U
NORAD_CAT_ID   = 28353
ELEMENT_SET_NO = 999
REV_AT_EPOCH   = 10921
BSTAR          = -.25717547E-4
MEAN_MOTION_DOT = -.97E-6
MEAN_MOTION_DDOT = 0

CCSDS_OMM_VERS = 2.0
CREATION_DATE  = 
ORIGINATOR     = 

OBJECT_NAME    = CZ-4B R/B
OBJECT_ID      = 2004-035C
CENTER_NAME    = EARTH
REF_FRAME      = TEME
TIME_SYSTEM    = UTC
MEAN_ELEMENT_THEORY = SGP/SGP4

EPOCH          = 2025-12-03T01:27:57.586752
MEAN_MOTION    = 15.27127618
ECCENTRICITY   = .00322155
INCLINATION    = 97.3622
RA_OF_ASC_NODE = 7.5360
ARG_OF_PERICENTER = 313.4375
MEAN_ANOMALY   = 46.4184

EPHEMERIS_TYPE = 0
CLASSIFICATION_TYPE = U
NORAD_CAT_ID   = 28415
ELEMENT_SET_NO = 999
REV_AT_EPOCH   = 16515
BSTAR          = .3945294E-3
MEAN_MOTION_DOT = .10584E-3
MEAN_MOTION_DDOT = 0

CCSDS_OMM_VERS = 2.0
CREATION_DATE  = 
ORIGINATOR     = 

OBJECT_NAME    = CZ-2C R/B
OBJECT_ID      = 2004-046B
CENTER_NAME    = EARTH
REF_FRAME      = TEME
TIME_SYSTEM    = UTC
MEAN_ELEMENT_THEORY = SGP/SGP4

EPOCH          = 2025-12-03T08:27:37.052352
MEAN_MOTION    = 14.26933924
ECCENTRICITY   = .01406874
INCLINATION    = 98.1982
RA_OF_ASC_NODE = 253.3142
ARG_OF_PERICENTER = 79.8457
MEAN_ANOMALY   = 281.8560

EPHEMERIS_TYPE = 0
CLASSIFICATION_TYPE = U
NORAD_CAT_ID   = 28480
ELEMENT_SET_NO = 999
REV_AT_EPOCH   = 9476
BSTAR          = .11944727E-3
MEAN_MOTION_DOT = .282E-5
MEAN_MOTION_DDOT = 0

CCSDS_OMM_VERS = 2.0
CREATION_DATE  = 
ORIGINATOR     = 

OBJECT_NAME    = ARIANE 5 R/B
OBJECT_ID      = 2004-049H
CENTER_NAME    = EARTH
REF_FRAME      = TEME
TIME_SYSTEM    = UTC
MEAN_ELEMENT_THEORY = SGP/SGP4

EPOCH          = 2025-12-03T08:29:45.265632
MEAN_MOTION    = 14.84976991
ECCENTRICITY   = .00835839
INCLINATION    = 98.2520
RA_OF_ASC_NODE = 137.2990
ARG_OF_PERICENTER = 303.7900
MEAN_ANOMALY   = 55.5374

EPHEMERIS_TYPE = 0
CLASSIFICATION_TYPE = U
NORAD_CAT_ID   = 28499
ELEMENT_SET_NO = 999
REV_AT_EPOCH   = 13149
BSTAR          = .17465354E-3
MEAN_MOTION_DOT = .1519E-4
MEAN_MOTION_DDOT = 0

