ENVISAT                 
1 27386U 02009A   25337.38931046  .00000220  00000+0  85225-4 0  9990
2 27386  98.3586 288.3676 0001170  81.8737  30.2501 14.38993574245320
IDEFIX & ARIANE 42P R/B 
1 27422U 02021B   25337.35329552  .00000493  00000+0  20402-3 0  9992
2 27422  98.5772 272.1666 0012825 108.9566 251.3008 14.30939008230247
AQUA                    
1 27424U 02022A   25337.39047497  .00001632  00000+0  33698-3 0  9991
2 27424  98.4024 298.1185 0000752 108.5664   6.1363 14.61772008254664
CZ-4B R/B               
1 27432U 02024C   25337.16838963  .00000095  00000+0  72256-4 0  9999
2 27432  98.9014  25.9729 0049233 297.6316 129.7768 14.14524606215595
MIDORI II (ADEOS-II)    
1 27597U 02056A   25337.33421852  .00000449  00000+0  19473-3 0  9994
2 27597  98.7621 290.2418 0000324   8.8165 351.3022 14.29195373196532
H-2A R/B                
1 27601U 02056E   25337.34809762  .00000504  00000+0  19100-3 0  9990
2 27601  98.3052 296.4797 0071507  88.6790  72.9046 14.33663997200301
CZ-4B R/B               
1 28059U 03049C   25336.96732921  .00000561  00000+0  14042-3 0  9993
2 28059  98.6780 323.1626 0048485 165.5846 194.6746 14.54894957172532
CZ-2C R/B               
1 28222U 04012C   25337.28021313  .00042400  00000+0  63827-3 0  9991
2 28222  97.7445  29.1269 0017017 307.3535  52.6167 15.54543707189258
SL-16 R/B               
1 28353U 04021B   25337.35806696 -.00000097  00000+0 -25718-4 0  9995
2 28353  71.0022  74.6519 0005787 212.7794 147.2970 14.14582539109211
CZ-4B R/B               
1 28415U 04035C   25337.06108318  .00010584  00000+0  39453-3 0  9993
2 28415  97.3622   7.5360 0032215 313.4375  46.4184 15.27127618165156
CZ-2C R/B               
1 28480U 04046B   25337.35251218  .00000282  00000+0  11945-3 0  9997
2 28480  98.1982 253.3142 0140687  79.8457 281.8560 14.26933924 94766
ARIANE 5 R/B            
1 28499U 04049H   25337.35399613  .00001519  00000+0  17465-3 0  9999
2 28499  98.2520 137.2990 0083583 303.7900  55.5374 14.84976991131495
